{
    "links": {
        "self": "http://www.neowsapp.com/rest/v1/neo/3799881?api_key=iIulBulltgU6a56xZRHN4H3l9WmuAYTsLGpBGhQ2"
    },
    "id": "3799881",
    "neo_reference_id": "3799881",
    "name": "(2018 EB4)",
    "designation": "2018 EB4",
    "nasa_jpl_url": "http://ssd.jpl.nasa.gov/sbdb.cgi?sstr=3799881",
    "absolute_magnitude_h": 25.4,
    "estimated_diameter": {
        "kilometers": {
            "estimated_diameter_min": 0.022108281,
            "estimated_diameter_max": 0.0494356193
        },
        "meters": {
            "estimated_diameter_min": 22.1082810359,
            "estimated_diameter_max": 49.435619262
        },
        "miles": {
            "estimated_diameter_min": 0.0137374447,
            "estimated_diameter_max": 0.0307178602
        },
        "feet": {
            "estimated_diameter_min": 72.5337327539,
            "estimated_diameter_max": 162.1903570994
        }
    },
    "is_potentially_hazardous_asteroid": false,
    "close_approach_data": [
        {
            "close_approach_date": "2018-03-16",
            "close_approach_date_full": "2018-Mar-16 06:00",
            "epoch_date_close_approach": 1521180000000,
            "relative_velocity": {
                "kilometers_per_second": "12.9485042387",
                "kilometers_per_hour": "46614.6152593157",
                "miles_per_hour": "28964.5091315453"
            },
            "miss_distance": {
                "astronomical": "0.0037348112",
                "lunar": "1.4528415568",
                "kilometers": "558719.800372144",
                "miles": "347172.3853538272"
            },
            "orbiting_body": "Earth"
        },
        {
            "close_approach_date": "2018-03-16",
            "close_approach_date_full": "2018-Mar-16 13:30",
            "epoch_date_close_approach": 1521207000000,
            "relative_velocity": {
                "kilometers_per_second": "13.2818094634",
                "kilometers_per_hour": "47814.5140682551",
                "miles_per_hour": "29710.0795886889"
            },
            "miss_distance": {
                "astronomical": "0.0040511715",
                "lunar": "1.5759057135",
                "kilometers": "606046.627404705",
                "miles": "376579.912026729"
            },
            "orbiting_body": "Moon"
        },
        {
            "close_approach_date": "2023-08-25",
            "close_approach_date_full": "2023-Aug-25 00:21",
            "epoch_date_close_approach": 1692922860000,
            "relative_velocity": {
                "kilometers_per_second": "4.7693220721",
                "kilometers_per_hour": "17169.5594594667",
                "miles_per_hour": "10668.4965430225"
            },
            "miss_distance": {
                "astronomical": "1.3574423914",
                "lunar": "528.0450902546",
                "kilometers": "203070490.401146318",
                "miles": "126182151.5911544684"
            },
            "orbiting_body": "Juptr"
        }
    ],
    "orbital_data": {
        "orbit_id": "5",
        "orbit_determination_date": "2018-04-05 06:30:04",
        "first_observation_date": "2018-03-12",
        "last_observation_date": "2018-03-16",
        "data_arc_in_days": 4,
        "observations_used": 85,
        "orbit_uncertainty": "7",
        "minimum_orbit_intersection": ".00319361",
        "jupiter_tisserand_invariant": "3.290",
        "epoch_osculation": "2459000.5",
        "eccentricity": ".6191017846612616",
        "semi_major_axis": "2.321362271202108",
        "inclination": "1.455707907546187",
        "ascending_node_longitude": "3.029263564789166",
        "orbital_period": "1291.852141025931",
        "perihelion_distance": ".8842027462555635",
        "perihelion_argument": "217.5821098351384",
        "aphelion_distance": "3.758521796148654",
        "perihelion_time": "2459517.885521828773",
        "mean_anomaly": "215.8203513054985",
        "mean_motion": ".2786696623919392",
        "equinox": "J2000",
        "orbit_class": {
            "orbit_class_type": "APO",
            "orbit_class_description": "Near-Earth asteroid orbits which cross the Earth’s orbit similar to that of 1862 Apollo",
            "orbit_class_range": "a (semi-major axis) > 1.0 AU; q (perihelion) < 1.017 AU"
        }
    },
    "is_sentry_object": false
}